IXPE                    
1 49954U 21121A   24253.58335648  .00017347  00000+0  12961-2 0  9998
2 49954   0.2291 126.3528 0008844  91.1802 108.8370 14.99740633150581
